[{"OBJECT_NAME":"GEISAT PRECURSOR","OBJECT_ID":"2023-084C","EPOCH":"2026-03-09T22:20:25.833120","MEAN_MOTION":15.33054389,"ECCENTRICITY":0.00051675,"INCLINATION":97.6055,"RA_OF_ASC_NODE":206.8263,"ARG_OF_PERICENTER":345.1842,"MEAN_ANOMALY":14.9247,"EPHEMERIS_TYPE":0,"CLASSIFICATION_TYPE":"U","NORAD_CAT_ID":56934,"ELEMENT_SET_NO":999,"REV_AT_EPOCH":15231,"BSTAR":0.00033857167,"MEAN_MOTION_DOT":0.00010736,"MEAN_MOTION_DDOT":0},{"OBJECT_NAME":"STARLINK-31239","OBJECT_ID":"2024-117C","EPOCH":"2026-03-09T07:18:34.610400","MEAN_MOTION":15.30188017,"ECCENTRICITY":0.00014284,"INCLINATION":53.1627,"RA_OF_ASC_NODE":39.1898,"ARG_OF_PERICENTER":89.7347,"MEAN_ANOMALY":270.3818,"EPHEMERIS_TYPE":0,"CLASSIFICATION_TYPE":"U","NORAD_CAT_ID":60093,"ELEMENT_SET_NO":999,"REV_AT_EPOCH":9682,"BSTAR":-2.2951996e-5,"MEAN_MOTION_DOT":-1.039e-5,"MEAN_MOTION_DDOT":0}]
